STARLINK-2022           
1 47643U 21012Z   24217.09386607  .00022746  00000+0  15400-2 0  9997
2 47643  53.0540 146.9921 0001438 104.7148 255.4001 15.06423924191932
